OBJECT_NAME,OBJECT_ID,EPOCH,MEAN_MOTION,ECCENTRICITY,INCLINATION,RA_OF_ASC_NODE,ARG_OF_PERICENTER,MEAN_ANOMALY,EPHEMERIS_TYPE,CLASSIFICATION_TYPE,NORAD_CAT_ID,ELEMENT_SET_NO,REV_AT_EPOCH,BSTAR,MEAN_MOTION_DOT,MEAN_MOTION_DDOT
S-NET B,2018-014H,2026-07-14T17:16:06.146976,15.16885110,.0006858,97.5340,100.3268,280.6944,79.3517,0,U,43187,999,46293,.12839E-3,.2461E-4,0
S-NET A,2018-014J,2026-07-14T16:56:59.769312,15.16923371,.0006741,97.5351,100.5279,281.8127,78.2349,0,U,43188,999,46293,.12958E-3,.2488E-4,0
S-NET C,2018-014K,2026-07-14T17:21:53.777376,15.16876096,.0008125,97.5370,100.6239,272.3124,87.7179,0,U,43189,999,46148,.12529E-3,.24E-4,0
PAZ,2018-020A,2026-07-14T20:06:04.580928,15.19156997,.0001686,97.4455,202.8305,89.7648,270.3780,0,U,43215,999,46520,.47827E-4,.938E-5,0
GOES 17,2018-022A,2026-07-14T19:50:08.246112,1.00271097,.0000536,1.0058,85.2619,82.3130,333.1466,0,U,43226,999,3070,0,-.192E-5,0
LKW-4,2018-025A,2026-07-14T12:54:31.732128,15.64488285,.0003384,97.6348,8.6034,185.8944,174.2275,0,U,43236,999,46430,.31254E-3,.29974E-3,0
ZHUHAI-1 OVS-02,2018-040B,2026-07-14T20:27:11.189376,15.25374252,.0005029,97.0379,211.4460,136.2982,223.8656,0,U,43440,999,45693,.16471E-3,.4091E-4,0
ZHUHAI-1 OHS-02,2018-040C,2026-07-14T21:17:22.944768,15.26264997,.0011194,97.0358,218.4459,126.1530,234.0747,0,U,43441,999,11850,.17734E-3,.4536E-4,0
GAOFEN-6,2018-048A,2026-07-14T20:34:56.572608,14.76381968,.001213,98.0965,258.5584,82.5816,277.6771,0,U,43484,999,43747,.10625E-4,.21E-6,0
LUOJIA-1 01,2018-048B,2026-07-14T21:24:12.053088,14.87379042,.0009769,97.8103,273.6347,38.1940,321.9966,0,U,43485,999,43833,.10057E-3,.855E-5,0
PAKTES 1A,2018-056A,2026-07-14T20:05:58.557984,14.99205733,.001989,98.1283,353.5038,21.0968,339.1070,0,U,43529,999,43606,.13886E-3,.1632E-4,0
PRSS-1,2018-056B,2026-07-14T19:18:22.136832,14.82027299,.0001253,97.7814,262.9080,85.4204,274.7152,0,U,43530,999,43252,.4115E-4,.276E-5,0
HAIYANG-1C,2018-068A,2026-07-14T19:15:48.241152,14.34186606,.0011228,98.5189,267.7099,19.4487,340.7124,0,U,43609,999,41104,.42919E-4,.77E-6,0
SSTL S1-4,2018-071A,2026-07-14T20:13:34.555584,14.96202146,.0002171,97.4991,66.3014,98.2455,261.9013,0,U,43618,999,42707,.32119E-4,.308E-5,0
HAIYANG-2B,2018-081A,2026-07-14T20:56:49.320384,13.79305440,.0000881,99.3284,204.2111,148.2696,211.8509,0,U,43655,999,38874,-.24606E-3,-.297E-5,0
CFOSAT,2018-083A,2026-07-14T20:57:56.954304,15.16534586,.0001855,97.3616,199.5914,75.7426,284.4013,0,U,43662,999,42663,.9339E-4,.1756E-4,0
TEN-KOH,2018-084G,2026-07-14T11:40:00.260832,15.03043848,.00099017,98.0757,28.9976,32.4073,327.7758,0,U,43677,999,42026,.13625833E-3,.177E-4,0
DIWATA-2B,2018-084H,2026-07-14T20:15:39.415680,15.00562547,.0012853,98.1214,33.2637,85.4966,274.7724,0,U,43678,999,42036,.92649E-4,.1105E-4,0
STARS-AO,2018-084J,2026-07-14T13:48:54.972000,15.17340960,.0003608,98.0471,51.2368,82.2451,277.9190,0,U,43679,999,42162,.15224E-3,.2961E-4,0
AUTCUBE 2,2018-084K,2026-07-14T12:41:34.431072,15.10262132,.00078913,98.0689,43.1539,317.1706,42.8906,0,U,43681,999,42105,.14211843E-3,.2255E-4,0
METOP-C,2018-087A,2026-07-14T19:12:52.912224,14.21518964,.0002223,98.6631,254.8975,94.2078,265.9354,0,U,43689,999,39875,.39064E-4,.42E-6,0
ES'HAIL 2,2018-090A,2026-07-14T20:12:58.492224,1.00270700,.0002192,0.0180,39.9084,119.2005,102.6091,0,U,43700,999,2795,0,.135E-5,0
MOHAMMED VI-B,2018-095A,2026-07-14T19:34:31.689984,14.77079931,.0001747,97.9555,267.7583,93.3922,266.7488,0,U,43717,999,41226,.11494E-4,.3E-6,0
HYSIS,2018-096A,2026-07-14T19:42:17.374752,14.78670813,.0001841,97.9835,262.3504,84.0909,276.0512,0,U,43719,999,41150,.12952E-3,.898E-5,0
COSMOS 2530 (RODNIK-S 16),2018-097A,2026-07-14T19:49:53.474304,12.42882587,.0019004,82.5117,205.1269,339.8172,20.2154,0,U,43751,999,34572,.14109E-2,.205E-5,0
COSMOS 2531 (RODNIK-S 17),2018-097B,2026-07-14T20:20:59.002368,12.42913972,.0016622,82.5162,206.1813,359.8017,0.3054,0,U,43752,999,34574,.15168E-2,.22E-5,0
COSMOS 2532 (RODNIK-S 18),2018-097C,2026-07-14T21:01:46.748928,12.42911080,.0018053,82.5107,204.9371,1.5233,358.5898,0,U,43753,999,34571,.86721E-3,.13E-5,0
MINXSS-2,2018-099A,2026-07-14T18:15:51.001344,15.48799733,.0008452,97.4528,272.8893,162.2091,197.9457,0,U,43758,999,41839,.45177E-3,.24253E-3,0
SIRION PATHFINDER-2,2018-099B,2026-07-14T17:31:18.145632,15.14775345,.0008405,97.4239,244.1345,193.1318,166.9696,0,U,43759,999,41679,.12343E-3,.2226E-4,0
AISTECHSAT 2,2018-099L,2026-07-14T16:28:46.574688,15.15710928,.0004574,97.4277,243.1206,181.3013,178.8209,0,U,43768,999,41644,.16417E-3,.3062E-4,0
