S-NET B                 
1 43187U 18014H   26195.71951559  .00002461  00000+0  12839-3 0  9990
2 43187  97.5340 100.3268 0006858 280.6944  79.3517 15.16885110462935
S-NET A                 
1 43188U 18014J   26195.70624733  .00002488  00000+0  12958-3 0  9992
2 43188  97.5351 100.5279 0006741 281.8127  78.2349 15.16923371462932
S-NET C                 
1 43189U 18014K   26195.72353909  .00002400  00000+0  12529-3 0  9997
2 43189  97.5370 100.6239 0008125 272.3124  87.7179 15.16876096461487
PAZ                     
1 43215U 18020A   26195.83755302  .00000938  00000+0  47827-4 0  9993
2 43215  97.4455 202.8305 0001686  89.7648 270.3780 15.19156997465201
GOES 17                 
1 43226U 18022A   26195.82648433 -.00000192  00000+0  00000+0 0  9992
2 43226   1.0058  85.2619 0000536  82.3130 333.1466  1.00271097 30708
LKW-4                   
1 43236U 18025A   26195.53786727  .00029974  00000+0  31254-3 0  9990
2 43236  97.6348   8.6034 0003384 185.8944 174.2275 15.64488285464301
ZHUHAI-1 OVS-02         
1 43440U 18040B   26195.85221284  .00004091  00000+0  16471-3 0  9998
2 43440  97.0379 211.4460 0005029 136.2982 223.8656 15.25374252456932
ZHUHAI-1 OHS-02         
1 43441U 18040C   26195.88707112  .00004536  00000+0  17734-3 0  9998
2 43441  97.0358 218.4459 0011194 126.1530 234.0747 15.26264997118500
GAOFEN-6                
1 43484U 18048A   26195.85759922  .00000021  00000+0  10625-4 0  9994
2 43484  98.0965 258.5584 0012130  82.5816 277.6771 14.76381968437471
LUOJIA-1 01             
1 43485U 18048B   26195.89180617  .00000855  00000+0  10057-3 0  9991
2 43485  97.8103 273.6347 0009769  38.1940 321.9966 14.87379042438334
PAKTES 1A               
1 43529U 18056A   26195.83748331  .00001632  00000+0  13886-3 0  9993
2 43529  98.1283 353.5038 0019890  21.0968 339.1070 14.99205733436061
PRSS-1                  
1 43530U 18056B   26195.80442288  .00000276  00000+0  41150-4 0  9993
2 43530  97.7814 262.9080 0001253  85.4204 274.7152 14.82027299432522
HAIYANG-1C              
1 43609U 18068A   26195.80264168  .00000077  00000+0  42919-4 0  9995
2 43609  98.5189 267.7099 0011228  19.4487 340.7124 14.34186606411041
SSTL S1-4               
1 43618U 18071A   26195.84276106  .00000308  00000+0  32119-4 0  9996
2 43618  97.4991  66.3014 0002171  98.2455 261.9013 14.96202146427074
HAIYANG-2B              
1 43655U 18081A   26195.87279306 -.00000297  00000+0 -24606-3 0  9996
2 43655  99.3284 204.2111 0000881 148.2696 211.8509 13.79305440388746
CFOSAT                  
1 43662U 18083A   26195.87357586  .00001756  00000+0  93390-4 0  9999
2 43662  97.3616 199.5914 0001855  75.7426 284.4013 15.16534586426630
TEN-KOH                 
1 43677U 18084G   26195.48611413  .00001770  00000+0  13626-3 0  9994
2 43677  98.0757  28.9976 0009901  32.4073 327.7758 15.03043848420263
DIWATA-2B               
1 43678U 18084H   26195.84420620  .00001105  00000+0  92649-4 0  9998
2 43678  98.1214  33.2637 0012853  85.4966 274.7724 15.00562547420369
STARS-AO                
1 43679U 18084J   26195.57563625  .00002961  00000+0  15224-3 0  9996
2 43679  98.0471  51.2368 0003608  82.2451 277.9190 15.17340960421620
AUTCUBE 2               
1 43681U 18084K   26195.52887073  .00002255  00000+0  14212-3 0  9992
2 43681  98.0689  43.1539 0007891 317.1706  42.8906 15.10262132421053
METOP-C                 
1 43689U 18087A   26195.80061241  .00000042  00000+0  39064-4 0  9990
2 43689  98.6631 254.8975 0002223  94.2078 265.9354 14.21518964398751
ES'HAIL 2               
1 43700U 18090A   26195.84234366  .00000135  00000+0  00000+0 0  9998
2 43700   0.0180  39.9084 0002192 119.2005 102.6091  1.00270700 27959
MOHAMMED VI-B           
1 43717U 18095A   26195.81564456  .00000030  00000+0  11494-4 0  9992
2 43717  97.9555 267.7583 0001747  93.3922 266.7488 14.77079931412263
HYSIS                   
1 43719U 18096A   26195.82103443  .00000898  00000+0  12952-3 0  9992
2 43719  97.9835 262.3504 0001841  84.0909 276.0512 14.78670813411502
COSMOS 2530 (RODNIK-S *)
1 43751U 18097A   26195.82631336  .00000205  00000+0  14109-2 0  9993
2 43751  82.5117 205.1269 0019004 339.8172  20.2154 12.42882587345720
COSMOS 2531 (RODNIK-S *)
1 43752U 18097B   26195.84790512  .00000220  00000+0  15168-2 0  9991
2 43752  82.5162 206.1813 0016622 359.8017   0.3054 12.42913972345743
COSMOS 2532 (RODNIK-S *)
1 43753U 18097C   26195.87623552  .00000130  00000+0  86721-3 0  9998
2 43753  82.5107 204.9371 0018053   1.5233 358.5898 12.42911080345718
MINXSS-2                
1 43758U 18099A   26195.76100696  .00024253  00000+0  45177-3 0  9994
2 43758  97.4528 272.8893 0008452 162.2091 197.9457 15.48799733418396
SIRION PATHFINDER-2     
1 43759U 18099B   26195.73007113  .00002226  00000+0  12343-3 0  9997
2 43759  97.4239 244.1345 0008405 193.1318 166.9696 15.14775345416792
AISTECHSAT 2            
1 43768U 18099L   26195.68665017  .00003062  00000+0  16417-3 0  9999
2 43768  97.4277 243.1206 0004574 181.3013 178.8209 15.15710928416444
